{
  "type": "FeatureCollection",
  "generator": "overpass-turbo",
  "copyright": "The data included in this document is from www.openstreetmap.org. The data is made available under ODbL.",
  "timestamp": "2026-04-24T11:03:29Z",
  "features": [
    {
      "type": "Feature",
      "properties": {
        "@id": "way/274760683",
        "landuse": "winter_sports",
        "leisure": "sports_centre",
        "name": "Porters Ski Area",
        "not:name": "Ports Ski Field",
        "sport": "skiing",
        "wikidata": "Q7231694",
        "wikipedia": "en:Porters Ski Area"
      },
      "geometry": {
        "type": "Polygon",
        "coordinates": [
          [
            [
              171.6259175,
              -43.2658759
            ],
            [
              171.6257066,
              -43.2661362
            ],
            [
              171.6255422,
              -43.2664201
            ],
            [
              171.6252779,
              -43.2667607
            ],
            [
              171.6250736,
              -43.2671276
            ],
            [
              171.6248615,
              -43.2679641
            ],
            [
              171.6249322,
              -43.2684659
            ],
            [
              171.6250736,
              -43.2689935
            ],
            [
              171.6250736,
              -43.2695468
            ],
            [
              171.6250029,
              -43.270113
            ],
            [
              171.6245788,
              -43.2705505
            ],
            [
              171.6241723,
              -43.2710009
            ],
            [
              171.6236951,
              -43.2712969
            ],
            [
              171.6232533,
              -43.2717344
            ],
            [
              171.6228292,
              -43.2721204
            ],
            [
              171.6221223,
              -43.2725707
            ],
            [
              171.62214,
              -43.2730082
            ],
            [
              171.6225995,
              -43.273124
            ],
            [
              171.6235714,
              -43.2733299
            ],
            [
              171.6241193,
              -43.273613
            ],
            [
              171.6246848,
              -43.2739475
            ],
            [
              171.6252503,
              -43.2741534
            ],
            [
              171.6258688,
              -43.2746681
            ],
            [
              171.6264344,
              -43.274964
            ],
            [
              171.6270529,
              -43.2750927
            ],
            [
              171.6276891,
              -43.2753629
            ],
            [
              171.6288555,
              -43.2756974
            ],
            [
              171.6294387,
              -43.2759033
            ],
            [
              171.6296507,
              -43.2763021
            ],
            [
              171.6300925,
              -43.2766495
            ],
            [
              171.6301102,
              -43.2769969
            ],
            [
              171.6304813,
              -43.2774472
            ],
            [
              171.6307464,
              -43.2779876
            ],
            [
              171.6318421,
              -43.2781034
            ],
            [
              171.6340865,
              -43.2781806
            ],
            [
              171.6361541,
              -43.2783607
            ],
            [
              171.6376563,
              -43.2786695
            ],
            [
              171.6397063,
              -43.2788754
            ],
            [
              171.6425692,
              -43.2793128
            ],
            [
              171.644036,
              -43.2788239
            ],
            [
              171.6443895,
              -43.277473
            ],
            [
              171.644955,
              -43.2762635
            ],
            [
              171.6450964,
              -43.2753371
            ],
            [
              171.6453614,
              -43.2747581
            ],
            [
              171.6455205,
              -43.2738703
            ],
            [
              171.6456089,
              -43.2729567
            ],
            [
              171.6463688,
              -43.2724807
            ],
            [
              171.6463157,
              -43.2718502
            ],
            [
              171.6461567,
              -43.2709108
            ],
            [
              171.6455558,
              -43.2700873
            ],
            [
              171.6449903,
              -43.2696498
            ],
            [
              171.6438946,
              -43.2689935
            ],
            [
              171.6430464,
              -43.2687233
            ],
            [
              171.6422688,
              -43.26817
            ],
            [
              171.6412968,
              -43.2676552
            ],
            [
              171.6406253,
              -43.2672692
            ],
            [
              171.6399714,
              -43.2666515
            ],
            [
              171.6392291,
              -43.2664713
            ],
            [
              171.6386459,
              -43.2661882
            ],
            [
              171.6375856,
              -43.2656735
            ],
            [
              171.6365076,
              -43.2653646
            ],
            [
              171.635783,
              -43.2653003
            ],
            [
              171.6352352,
              -43.265133
            ],
            [
              171.634758,
              -43.2653003
            ],
            [
              171.6340865,
              -43.2655963
            ],
            [
              171.6332029,
              -43.2656349
            ],
            [
              171.6325136,
              -43.2655062
            ],
            [
              171.6320718,
              -43.2652102
            ],
            [
              171.6315417,
              -43.2645925
            ],
            [
              171.6305697,
              -43.2642579
            ],
            [
              171.6297568,
              -43.2637432
            ],
            [
              171.6293951,
              -43.2636136
            ],
            [
              171.6289196,
              -43.2638127
            ],
            [
              171.6286665,
              -43.2639006
            ],
            [
              171.6268234,
              -43.2648355
            ],
            [
              171.626679,
              -43.2649594
            ],
            [
              171.6260456,
              -43.2657747
            ],
            [
              171.6259175,
              -43.2658759
            ]
          ]
        ]
      },
      "id": "way/274760683"
    }
  ]
}